<?xml version="1.0" encoding="UTF-8"?>
<ndm xmlns:xsi="http://www.w3.org/2001/XMLSchema-instance" xsi:noNamespaceSchemaLocation="https://sanaregistry.org/r/ndmxml_unqualified/ndmxml-2.0.0-master-2.0.xsd">
<omm id="CCSDS_OMM_VERS" version="2.0">
<header><CREATION_DATE/><ORIGINATOR/></header><body><segment><metadata><OBJECT_NAME>KUIPER-00089</OBJECT_NAME><OBJECT_ID>2025-151U</OBJECT_ID><CENTER_NAME>EARTH</CENTER_NAME><REF_FRAME>TEME</REF_FRAME><TIME_SYSTEM>UTC</TIME_SYSTEM><MEAN_ELEMENT_THEORY>SGP4</MEAN_ELEMENT_THEORY></metadata><data><meanElements><EPOCH>2025-09-05T14:43:43.682592</EPOCH><MEAN_MOTION>15.36465037</MEAN_MOTION><ECCENTRICITY>.00068989</ECCENTRICITY><INCLINATION>51.8797</INCLINATION><RA_OF_ASC_NODE>40.0138</RA_OF_ASC_NODE><ARG_OF_PERICENTER>342.1649</ARG_OF_PERICENTER><MEAN_ANOMALY>17.9094</MEAN_ANOMALY></meanElements><tleParameters><EPHEMERIS_TYPE>0</EPHEMERIS_TYPE><CLASSIFICATION_TYPE>U</CLASSIFICATION_TYPE><NORAD_CAT_ID>64834</NORAD_CAT_ID><ELEMENT_SET_NO>999</ELEMENT_SET_NO><REV_AT_EPOCH>788</REV_AT_EPOCH><BSTAR>.11755213E-2</BSTAR><MEAN_MOTION_DOT>.42349E-3</MEAN_MOTION_DOT><MEAN_MOTION_DDOT>0</MEAN_MOTION_DDOT></tleParameters></data></segment></body></omm>
<omm id="CCSDS_OMM_VERS" version="2.0">
<header><CREATION_DATE/><ORIGINATOR/></header><body><segment><metadata><OBJECT_NAME>KUIPER-00090</OBJECT_NAME><OBJECT_ID>2025-151V</OBJECT_ID><CENTER_NAME>EARTH</CENTER_NAME><REF_FRAME>TEME</REF_FRAME><TIME_SYSTEM>UTC</TIME_SYSTEM><MEAN_ELEMENT_THEORY>SGP4</MEAN_ELEMENT_THEORY></metadata><data><meanElements><EPOCH>2025-09-05T14:55:20.054496</EPOCH><MEAN_MOTION>15.36165404</MEAN_MOTION><ECCENTRICITY>.00065729</ECCENTRICITY><INCLINATION>51.8792</INCLINATION><RA_OF_ASC_NODE>40.0623</RA_OF_ASC_NODE><ARG_OF_PERICENTER>346.5939</ARG_OF_PERICENTER><MEAN_ANOMALY>13.4872</MEAN_ANOMALY></meanElements><tleParameters><EPHEMERIS_TYPE>0</EPHEMERIS_TYPE><CLASSIFICATION_TYPE>U</CLASSIFICATION_TYPE><NORAD_CAT_ID>64835</NORAD_CAT_ID><ELEMENT_SET_NO>999</ELEMENT_SET_NO><REV_AT_EPOCH>788</REV_AT_EPOCH><BSTAR>.17608106E-2</BSTAR><MEAN_MOTION_DOT>.63186E-3</MEAN_MOTION_DOT><MEAN_MOTION_DDOT>0</MEAN_MOTION_DDOT></tleParameters></data></segment></body></omm>
<omm id="CCSDS_OMM_VERS" version="2.0">
<header><CREATION_DATE/><ORIGINATOR/></header><body><segment><metadata><OBJECT_NAME>KUIPER-00091</OBJECT_NAME><OBJECT_ID>2025-151W</OBJECT_ID><CENTER_NAME>EARTH</CENTER_NAME><REF_FRAME>TEME</REF_FRAME><TIME_SYSTEM>UTC</TIME_SYSTEM><MEAN_ELEMENT_THEORY>SGP4</MEAN_ELEMENT_THEORY></metadata><data><meanElements><EPOCH>2025-09-05T14:26:54.154752</EPOCH><MEAN_MOTION>15.36597031</MEAN_MOTION><ECCENTRICITY>.00065415</ECCENTRICITY><INCLINATION>51.8796</INCLINATION><RA_OF_ASC_NODE>39.9313</RA_OF_ASC_NODE><ARG_OF_PERICENTER>324.7541</ARG_OF_PERICENTER><MEAN_ANOMALY>35.3012</MEAN_ANOMALY></meanElements><tleParameters><EPHEMERIS_TYPE>0</EPHEMERIS_TYPE><CLASSIFICATION_TYPE>U</CLASSIFICATION_TYPE><NORAD_CAT_ID>64836</NORAD_CAT_ID><ELEMENT_SET_NO>999</ELEMENT_SET_NO><REV_AT_EPOCH>788</REV_AT_EPOCH><BSTAR>.11105985E-2</BSTAR><MEAN_MOTION_DOT>.40146E-3</MEAN_MOTION_DOT><MEAN_MOTION_DDOT>0</MEAN_MOTION_DDOT></tleParameters></data></segment></body></omm>
<omm id="CCSDS_OMM_VERS" version="2.0">
<header><CREATION_DATE/><ORIGINATOR/></header><body><segment><metadata><OBJECT_NAME>KUIPER-00092</OBJECT_NAME><OBJECT_ID>2025-151X</OBJECT_ID><CENTER_NAME>EARTH</CENTER_NAME><REF_FRAME>TEME</REF_FRAME><TIME_SYSTEM>UTC</TIME_SYSTEM><MEAN_ELEMENT_THEORY>SGP4</MEAN_ELEMENT_THEORY></metadata><data><meanElements><EPOCH>2025-09-05T14:30:36.180288</EPOCH><MEAN_MOTION>15.36631944</MEAN_MOTION><ECCENTRICITY>.00064855</ECCENTRICITY><INCLINATION>51.8795</INCLINATION><RA_OF_ASC_NODE>39.9459</RA_OF_ASC_NODE><ARG_OF_PERICENTER>327.0838</ARG_OF_PERICENTER><MEAN_ANOMALY>32.9744</MEAN_ANOMALY></meanElements><tleParameters><EPHEMERIS_TYPE>0</EPHEMERIS_TYPE><CLASSIFICATION_TYPE>U</CLASSIFICATION_TYPE><NORAD_CAT_ID>64837</NORAD_CAT_ID><ELEMENT_SET_NO>999</ELEMENT_SET_NO><REV_AT_EPOCH>909</REV_AT_EPOCH><BSTAR>.17541855E-2</BSTAR><MEAN_MOTION_DOT>.63908E-3</MEAN_MOTION_DOT><MEAN_MOTION_DDOT>0</MEAN_MOTION_DDOT></tleParameters></data></segment></body></omm>
<omm id="CCSDS_OMM_VERS" version="2.0">
<header><CREATION_DATE/><ORIGINATOR/></header><body><segment><metadata><OBJECT_NAME>KUIPER-00093</OBJECT_NAME><OBJECT_ID>2025-151Y</OBJECT_ID><CENTER_NAME>EARTH</CENTER_NAME><REF_FRAME>TEME</REF_FRAME><TIME_SYSTEM>UTC</TIME_SYSTEM><MEAN_ELEMENT_THEORY>SGP4</MEAN_ELEMENT_THEORY></metadata><data><meanElements><EPOCH>2025-09-05T14:00:03.000384</EPOCH><MEAN_MOTION>15.29683824</MEAN_MOTION><ECCENTRICITY>.00069707</ECCENTRICITY><INCLINATION>51.8826</INCLINATION><RA_OF_ASC_NODE>40.2848</RA_OF_ASC_NODE><ARG_OF_PERICENTER>329.8338</ARG_OF_PERICENTER><MEAN_ANOMALY>149.5221</MEAN_ANOMALY></meanElements><tleParameters><EPHEMERIS_TYPE>0</EPHEMERIS_TYPE><CLASSIFICATION_TYPE>U</CLASSIFICATION_TYPE><NORAD_CAT_ID>64838</NORAD_CAT_ID><ELEMENT_SET_NO>999</ELEMENT_SET_NO><REV_AT_EPOCH>142</REV_AT_EPOCH><BSTAR>-.93768285E-2</BSTAR><MEAN_MOTION_DOT>-.264727E-2</MEAN_MOTION_DOT><MEAN_MOTION_DDOT>0</MEAN_MOTION_DDOT></tleParameters></data></segment></body></omm>
<omm id="CCSDS_OMM_VERS" version="2.0">
<header><CREATION_DATE/><ORIGINATOR/></header><body><segment><metadata><OBJECT_NAME>KUIPER-00094</OBJECT_NAME><OBJECT_ID>2025-151Z</OBJECT_ID><CENTER_NAME>EARTH</CENTER_NAME><REF_FRAME>TEME</REF_FRAME><TIME_SYSTEM>UTC</TIME_SYSTEM><MEAN_ELEMENT_THEORY>SGP4</MEAN_ELEMENT_THEORY></metadata><data><meanElements><EPOCH>2025-09-05T14:30:02.108448</EPOCH><MEAN_MOTION>15.36767626</MEAN_MOTION><ECCENTRICITY>.00065837</ECCENTRICITY><INCLINATION>51.8796</INCLINATION><RA_OF_ASC_NODE>39.9435</RA_OF_ASC_NODE><ARG_OF_PERICENTER>331.7689</ARG_OF_PERICENTER><MEAN_ANOMALY>28.2940</MEAN_ANOMALY></meanElements><tleParameters><EPHEMERIS_TYPE>0</EPHEMERIS_TYPE><CLASSIFICATION_TYPE>U</CLASSIFICATION_TYPE><NORAD_CAT_ID>64839</NORAD_CAT_ID><ELEMENT_SET_NO>999</ELEMENT_SET_NO><REV_AT_EPOCH>788</REV_AT_EPOCH><BSTAR>.13604751E-2</BSTAR><MEAN_MOTION_DOT>.49602E-3</MEAN_MOTION_DOT><MEAN_MOTION_DDOT>0</MEAN_MOTION_DDOT></tleParameters></data></segment></body></omm>
<omm id="CCSDS_OMM_VERS" version="2.0">
<header><CREATION_DATE/><ORIGINATOR/></header><body><segment><metadata><OBJECT_NAME>KUIPER-00081</OBJECT_NAME><OBJECT_ID>2025-171A</OBJECT_ID><CENTER_NAME>EARTH</CENTER_NAME><REF_FRAME>TEME</REF_FRAME><TIME_SYSTEM>UTC</TIME_SYSTEM><MEAN_ELEMENT_THEORY>SGP4</MEAN_ELEMENT_THEORY></metadata><data><meanElements><EPOCH>2025-09-03T05:31:34.025088</EPOCH><MEAN_MOTION>15.36124698</MEAN_MOTION><ECCENTRICITY>.00050201</ECCENTRICITY><INCLINATION>51.8759</INCLINATION><RA_OF_ASC_NODE>295.1419</RA_OF_ASC_NODE><ARG_OF_PERICENTER>200.8955</ARG_OF_PERICENTER><MEAN_ANOMALY>159.1827</MEAN_ANOMALY></meanElements><tleParameters><EPHEMERIS_TYPE>0</EPHEMERIS_TYPE><CLASSIFICATION_TYPE>U</CLASSIFICATION_TYPE><NORAD_CAT_ID>65132</NORAD_CAT_ID><ELEMENT_SET_NO>999</ELEMENT_SET_NO><REV_AT_EPOCH>474</REV_AT_EPOCH><BSTAR>.18003502E-2</BSTAR><MEAN_MOTION_DOT>.64523E-3</MEAN_MOTION_DOT><MEAN_MOTION_DDOT>0</MEAN_MOTION_DDOT></tleParameters></data></segment></body></omm>
<omm id="CCSDS_OMM_VERS" version="2.0">
<header><CREATION_DATE/><ORIGINATOR/></header><body><segment><metadata><OBJECT_NAME>KUIPER-00088</OBJECT_NAME><OBJECT_ID>2025-171B</OBJECT_ID><CENTER_NAME>EARTH</CENTER_NAME><REF_FRAME>TEME</REF_FRAME><TIME_SYSTEM>UTC</TIME_SYSTEM><MEAN_ELEMENT_THEORY>SGP4</MEAN_ELEMENT_THEORY></metadata><data><meanElements><EPOCH>2025-09-05T09:03:57.940416</EPOCH><MEAN_MOTION>15.36241686</MEAN_MOTION><ECCENTRICITY>.00044147</ECCENTRICITY><INCLINATION>51.8771</INCLINATION><RA_OF_ASC_NODE>284.7866</RA_OF_ASC_NODE><ARG_OF_PERICENTER>208.5149</ARG_OF_PERICENTER><MEAN_ANOMALY>151.5597</MEAN_ANOMALY></meanElements><tleParameters><EPHEMERIS_TYPE>0</EPHEMERIS_TYPE><CLASSIFICATION_TYPE>U</CLASSIFICATION_TYPE><NORAD_CAT_ID>65133</NORAD_CAT_ID><ELEMENT_SET_NO>999</ELEMENT_SET_NO><REV_AT_EPOCH>507</REV_AT_EPOCH><BSTAR>.10003877E-2</BSTAR><MEAN_MOTION_DOT>.35676E-3</MEAN_MOTION_DOT><MEAN_MOTION_DDOT>0</MEAN_MOTION_DDOT></tleParameters></data></segment></body></omm>

</ndm>
