KUIPER-00089            
1 64834U 25151U   25248.61370003  .00042349  00000+0  11755-2 0  9992
2 64834  51.8797  40.0138 0006898 342.1649  17.9094 15.36465037  7883
KUIPER-00090            
1 64835U 25151V   25248.62175989  .00063186  00000+0  17608-2 0  9995
2 64835  51.8792  40.0623 0006572 346.5939  13.4872 15.36165404  7887
KUIPER-00091            
1 64836U 25151W   25248.60201568  .00040146  00000+0  11106-2 0  9995
2 64836  51.8796  39.9313 0006541 324.7541  35.3012 15.36597031  7882
KUIPER-00092            
1 64837U 25151X   25248.60458542  .00063908  00000+0  17542-2 0  9993
2 64837  51.8795  39.9459 0006485 327.0838  32.9744 15.36631944  9097
KUIPER-00093            
1 64838U 25151Y   25248.58336806 -.00264727  00000+0 -93768-2 0  9997
2 64838  51.8826  40.2848 0006970 329.8338 149.5221 15.29683824  1424
KUIPER-00094            
1 64839U 25151Z   25248.60419107  .00049602  00000+0  13605-2 0  9990
2 64839  51.8796  39.9435 0006583 331.7689  28.2940 15.36767626  7887
KUIPER-00081            
1 65132U 25171A   25246.23025492  .00064523  00000+0  18004-2 0  9993
2 65132  51.8759 295.1419 0005020 200.8955 159.1827 15.36124698  4744
KUIPER-00088            
1 65133U 25171B   25248.37775394  .00035676  00000+0  10004-2 0  9993
2 65133  51.8771 284.7866 0004414 208.5149 151.5597 15.36241686  5079
